STARLINK-3057
1 19139C 21082K   21326.13091531 -.00035273  00000-0 -29540-3 0  3265
2 19139  69.9980 292.9108 0003840 285.1893  34.3086 15.69788088    16
